CCSDS_OMM_VERS = 2.0
CREATION_DATE  = 
ORIGINATOR     = 

OBJECT_NAME    = ATLAS CENTAUR 2
OBJECT_ID      = 1963-047A
CENTER_NAME    = EARTH
REF_FRAME      = TEME
TIME_SYSTEM    = UTC
MEAN_ELEMENT_THEORY = SGP/SGP4

EPOCH          = 2026-01-31T06:56:48.804864
MEAN_MOTION    = 14.11961278
ECCENTRICITY   = .0548138
INCLINATION    = 30.3538
RA_OF_ASC_NODE = 44.6347
ARG_OF_PERICENTER = 110.7236
MEAN_ANOMALY   = 255.2971

EPHEMERIS_TYPE = 0
CLASSIFICATION_TYPE = U
NORAD_CAT_ID   = 694
ELEMENT_SET_NO = 999
REV_AT_EPOCH   = 12633
BSTAR          = .1648E-3
MEAN_MOTION_DOT = .1435E-4
MEAN_MOTION_DDOT = 0

CCSDS_OMM_VERS = 2.0
CREATION_DATE  = 
ORIGINATOR     = 

OBJECT_NAME    = THOR AGENA D R/B
OBJECT_ID      = 1964-002A
CENTER_NAME    = EARTH
REF_FRAME      = TEME
TIME_SYSTEM    = UTC
MEAN_ELEMENT_THEORY = SGP/SGP4

EPOCH          = 2026-01-31T11:20:04.531488
MEAN_MOTION    = 14.33995525
ECCENTRICITY   = .0033038
INCLINATION    = 99.1227
RA_OF_ASC_NODE = 42.7840
ARG_OF_PERICENTER = 8.6148
MEAN_ANOMALY   = 351.5595

EPHEMERIS_TYPE = 0
CLASSIFICATION_TYPE = U
NORAD_CAT_ID   = 733
ELEMENT_SET_NO = 999
REV_AT_EPOCH   = 23296
BSTAR          = .12255E-3
MEAN_MOTION_DOT = .295E-5
MEAN_MOTION_DDOT = 0

CCSDS_OMM_VERS = 2.0
CREATION_DATE  = 
ORIGINATOR     = 

OBJECT_NAME    = SL-3 R/B
OBJECT_ID      = 1964-053B
CENTER_NAME    = EARTH
REF_FRAME      = TEME
TIME_SYSTEM    = UTC
MEAN_ELEMENT_THEORY = SGP/SGP4

EPOCH          = 2026-01-31T11:07:02.507808
MEAN_MOTION    = 14.61327381
ECCENTRICITY   = .00778
INCLINATION    = 65.0764
RA_OF_ASC_NODE = 80.3742
ARG_OF_PERICENTER = 304.0684
MEAN_ANOMALY   = 55.3047

EPHEMERIS_TYPE = 0
CLASSIFICATION_TYPE = U
NORAD_CAT_ID   = 877
ELEMENT_SET_NO = 999
REV_AT_EPOCH   = 26135
BSTAR          = .97229E-4
MEAN_MOTION_DOT = .377E-5
MEAN_MOTION_DDOT = 0

CCSDS_OMM_VERS = 2.0
CREATION_DATE  = 
ORIGINATOR     = 

OBJECT_NAME    = SL-8 R/B
OBJECT_ID      = 1967-045B
CENTER_NAME    = EARTH
REF_FRAME      = TEME
TIME_SYSTEM    = UTC
MEAN_ELEMENT_THEORY = SGP/SGP4

EPOCH          = 2026-01-31T11:34:22.535328
MEAN_MOTION    = 14.45587095
ECCENTRICITY   = .0062882
INCLINATION    = 74.0098
RA_OF_ASC_NODE = 57.5750
ARG_OF_PERICENTER = 73.4580
MEAN_ANOMALY   = 287.3472

EPHEMERIS_TYPE = 0
CLASSIFICATION_TYPE = U
NORAD_CAT_ID   = 2802
ELEMENT_SET_NO = 999
REV_AT_EPOCH   = 8364
BSTAR          = .90263E-4
MEAN_MOTION_DOT = .299E-5
MEAN_MOTION_DDOT = 0

CCSDS_OMM_VERS = 2.0
CREATION_DATE  = 
ORIGINATOR     = 

OBJECT_NAME    = SL-8 R/B
OBJECT_ID      = 1968-040B
CENTER_NAME    = EARTH
REF_FRAME      = TEME
TIME_SYSTEM    = UTC
MEAN_ELEMENT_THEORY = SGP/SGP4

EPOCH          = 2026-01-31T10:30:12.954816
MEAN_MOTION    = 15.02959509
ECCENTRICITY   = .0025605
INCLINATION    = 74.0306
RA_OF_ASC_NODE = 29.7916
ARG_OF_PERICENTER = 223.8778
MEAN_ANOMALY   = 136.0378

EPHEMERIS_TYPE = 0
CLASSIFICATION_TYPE = U
NORAD_CAT_ID   = 3230
ELEMENT_SET_NO = 999
REV_AT_EPOCH   = 8441
BSTAR          = .22879E-3
MEAN_MOTION_DOT = .3055E-4
MEAN_MOTION_DDOT = 0

CCSDS_OMM_VERS = 2.0
CREATION_DATE  = 
ORIGINATOR     = 

OBJECT_NAME    = OAO 2
OBJECT_ID      = 1968-110A
CENTER_NAME    = EARTH
REF_FRAME      = TEME
TIME_SYSTEM    = UTC
MEAN_ELEMENT_THEORY = SGP/SGP4

EPOCH          = 2026-01-31T12:42:26.366112
MEAN_MOTION    = 14.47283164
ECCENTRICITY   = .0006108
INCLINATION    = 34.9933
RA_OF_ASC_NODE = 112.6918
ARG_OF_PERICENTER = 261.5267
MEAN_ANOMALY   = 98.4732

EPHEMERIS_TYPE = 0
CLASSIFICATION_TYPE = U
NORAD_CAT_ID   = 3597
ELEMENT_SET_NO = 999
REV_AT_EPOCH   = 1371
BSTAR          = .99403E-4
MEAN_MOTION_DOT = .35E-5
MEAN_MOTION_DDOT = 0

CCSDS_OMM_VERS = 2.0
CREATION_DATE  = 
ORIGINATOR     = 

OBJECT_NAME    = ISIS 1
OBJECT_ID      = 1969-009A
CENTER_NAME    = EARTH
REF_FRAME      = TEME
TIME_SYSTEM    = UTC
MEAN_ELEMENT_THEORY = SGP/SGP4

EPOCH          = 2026-01-31T08:47:34.233216
MEAN_MOTION    = 11.30394843
ECCENTRICITY   = .1707855
INCLINATION    = 88.4548
RA_OF_ASC_NODE = 159.3754
ARG_OF_PERICENTER = 164.4710
MEAN_ANOMALY   = 201.6288

EPHEMERIS_TYPE = 0
CLASSIFICATION_TYPE = U
NORAD_CAT_ID   = 3669
ELEMENT_SET_NO = 999
REV_AT_EPOCH   = 34431
BSTAR          = .27977E-3
MEAN_MOTION_DOT = .407E-5
MEAN_MOTION_DDOT = 0

CCSDS_OMM_VERS = 2.0
CREATION_DATE  = 
ORIGINATOR     = 

OBJECT_NAME    = SERT 2
OBJECT_ID      = 1970-009A
CENTER_NAME    = EARTH
REF_FRAME      = TEME
TIME_SYSTEM    = UTC
MEAN_ELEMENT_THEORY = SGP/SGP4

EPOCH          = 2026-01-31T10:44:54.518208
MEAN_MOTION    = 13.58725535
ECCENTRICITY   = .0004
INCLINATION    = 99.2711
RA_OF_ASC_NODE = 336.5892
ARG_OF_PERICENTER = 260.2167
MEAN_ANOMALY   = 207.4228

EPHEMERIS_TYPE = 0
CLASSIFICATION_TYPE = U
NORAD_CAT_ID   = 4327
ELEMENT_SET_NO = 999
REV_AT_EPOCH   = 77483
BSTAR          = .47735E-4
MEAN_MOTION_DOT = -.6E-7
MEAN_MOTION_DDOT = 0

CCSDS_OMM_VERS = 2.0
CREATION_DATE  = 
ORIGINATOR     = 

OBJECT_NAME    = SL-3 R/B
OBJECT_ID      = 1971-028B
CENTER_NAME    = EARTH
REF_FRAME      = TEME
TIME_SYSTEM    = UTC
MEAN_ELEMENT_THEORY = SGP/SGP4

EPOCH          = 2026-01-31T10:38:03.758784
MEAN_MOTION    = 15.58226468
ECCENTRICITY   = .0017811
INCLINATION    = 81.2372
RA_OF_ASC_NODE = 97.9342
ARG_OF_PERICENTER = 64.7766
MEAN_ANOMALY   = 295.5330

EPHEMERIS_TYPE = 0
CLASSIFICATION_TYPE = U
NORAD_CAT_ID   = 5118
ELEMENT_SET_NO = 999
REV_AT_EPOCH   = 98286
BSTAR          = .43837E-3
MEAN_MOTION_DOT = .3347E-3
MEAN_MOTION_DDOT = 0

CCSDS_OMM_VERS = 2.0
CREATION_DATE  = 
ORIGINATOR     = 

OBJECT_NAME    = ASTEX 1
OBJECT_ID      = 1971-089A
CENTER_NAME    = EARTH
REF_FRAME      = TEME
TIME_SYSTEM    = UTC
MEAN_ELEMENT_THEORY = SGP/SGP4

EPOCH          = 2026-01-31T10:30:42.051744
MEAN_MOTION    = 14.50721978
ECCENTRICITY   = .0014693
INCLINATION    = 92.7155
RA_OF_ASC_NODE = 139.7061
ARG_OF_PERICENTER = 202.8866
MEAN_ANOMALY   = 157.1687

EPHEMERIS_TYPE = 0
CLASSIFICATION_TYPE = U
NORAD_CAT_ID   = 5560
ELEMENT_SET_NO = 999
REV_AT_EPOCH   = 85690
BSTAR          = .1711E-3
MEAN_MOTION_DOT = .672E-5
MEAN_MOTION_DDOT = 0

CCSDS_OMM_VERS = 2.0
CREATION_DATE  = 
ORIGINATOR     = 

OBJECT_NAME    = SL-8 R/B
OBJECT_ID      = 1971-119B
CENTER_NAME    = EARTH
REF_FRAME      = TEME
TIME_SYSTEM    = UTC
MEAN_ELEMENT_THEORY = SGP/SGP4

EPOCH          = 2026-01-31T01:40:14.731680
MEAN_MOTION    = 14.36770216
ECCENTRICITY   = .05548747
INCLINATION    = 73.8858
RA_OF_ASC_NODE = 245.9833
ARG_OF_PERICENTER = 220.3144
MEAN_ANOMALY   = 135.5619

EPHEMERIS_TYPE = 0
CLASSIFICATION_TYPE = U
NORAD_CAT_ID   = 5730
ELEMENT_SET_NO = 999
REV_AT_EPOCH   = 65008
BSTAR          = .40889573E-3
MEAN_MOTION_DOT = .7856E-4
MEAN_MOTION_DDOT = 0

CCSDS_OMM_VERS = 2.0
CREATION_DATE  = 
ORIGINATOR     = 

OBJECT_NAME    = OAO 3 (COPERNICUS)
OBJECT_ID      = 1972-065A
CENTER_NAME    = EARTH
REF_FRAME      = TEME
TIME_SYSTEM    = UTC
MEAN_ELEMENT_THEORY = SGP/SGP4

EPOCH          = 2026-01-31T11:10:49.548000
MEAN_MOTION    = 14.59962227
ECCENTRICITY   = .0006957
INCLINATION    = 35.0048
RA_OF_ASC_NODE = 149.3873
ARG_OF_PERICENTER = 220.9795
MEAN_ANOMALY   = 205.5073

EPHEMERIS_TYPE = 0
CLASSIFICATION_TYPE = U
NORAD_CAT_ID   = 6153
ELEMENT_SET_NO = 999
REV_AT_EPOCH   = 84075
BSTAR          = .10207E-3
MEAN_MOTION_DOT = .476E-5
MEAN_MOTION_DDOT = 0

