ATLAS CENTAUR 2         
1 00694U 63047A   26031.28945376  .00001435  00000+0  16480-3 0  9999
2 00694  30.3538  44.6347 0548138 110.7236 255.2971 14.11961278126336
THOR AGENA D R/B        
1 00733U 64002A   26031.47227467  .00000295  00000+0  12255-3 0  9999
2 00733  99.1227  42.7840 0033038   8.6148 351.5595 14.33995525232965
SL-3 R/B                
1 00877U 64053B   26031.46322347  .00000377  00000+0  97229-4 0  9992
2 00877  65.0764  80.3742 0077800 304.0684  55.3047 14.61327381261350
SL-8 R/B                
1 02802U 67045B   26031.48220527  .00000299  00000+0  90263-4 0  9999
2 02802  74.0098  57.5750 0062882  73.4580 287.3472 14.45587095 83646
SL-8 R/B                
1 03230U 68040B   26031.43764994  .00003055  00000+0  22879-3 0  9997
2 03230  74.0306  29.7916 0025605 223.8778 136.0378 15.02959509 84419
OAO 2                   
1 03597U 68110A   26031.52947183  .00000350  00000+0  99403-4 0  9997
2 03597  34.9933 112.6918 0006108 261.5267  98.4732 14.47283164 13714
ISIS 1                  
1 03669U 69009A   26031.36636844  .00000407  00000+0  27977-3 0  9995
2 03669  88.4548 159.3754 1707855 164.4710 201.6288 11.30394843344311
SERT 2                  
1 04327U 70009A   26031.44785322 -.00000006  00000+0  47735-4 0  9995
2 04327  99.2711 336.5892 0004000 260.2167 207.4228 13.58725535774839
SL-3 R/B                
1 05118U 71028B   26031.44309906  .00033470  00000+0  43837-3 0  9994
2 05118  81.2372  97.9342 0017811  64.7766 295.5330 15.58226468982865
ASTEX 1                 
1 05560U 71089A   26031.43798671  .00000672  00000+0  17110-3 0  9995
2 05560  92.7155 139.7061 0014693 202.8866 157.1687 14.50721978856906
SL-8 R/B                
1 05730U 71119B   26031.06961495  .00007856  00000+0  40890-3 0  9995
2 05730  73.8858 245.9833 0554874 220.3144 135.5619 14.36770216650085
OAO 3 (COPERNICUS)      
1 06153U 72065A   26031.46585125  .00000476  00000+0  10207-3 0  9992
2 06153  35.0048 149.3873 0006957 220.9795 205.5073 14.59962227840756
